#aV2010  4 29  0  0   .00000000      96 DD+AD WGS84 FIT  NGA
## 1581 345600.00000000   900.00000000 55315  .0000000000000
+   31     1  2  3  4  5  6  7  8  9 10 11 12 13 14 15 16 17
+         18 19 20 21 22 23 24 26 27 28 29 30 31 32  0  0  0
+          0  0  0  0  0  0  0  0  0  0  0  0  0  0  0  0  0
+          0  0  0  0  0  0  0  0  0  0  0  0  0  0  0  0  0
+          0  0  0  0  0  0  0  0  0  0  0  0  0  0  0  0  0
++         0  0  0  0  0  0  0  0  0  0  0  0  0  0  0  0  0
++         0  0  0  0  0  0  0  0  0  0  0  0  0  0  0  0  0
++         0  0  0  0  0  0  0  0  0  0  0  0  0  0  0  0  0
++         0  0  0  0  0  0  0  0  0  0  0  0  0  0  0  0  0
++         0  0  0  0  0  0  0  0  0  0  0  0  0  0  0  0  0
%c cc cc ccc ccc cccc cccc cccc cccc ccccc ccccc ccccc ccccc
%c cc cc ccc ccc cccc cccc cccc cccc ccccc ccccc ccccc ccccc
%f  0.0000000  0.000000000  0.00000000000  0.000000000000000
%f  0.0000000  0.000000000  0.00000000000  0.000000000000000
%i    0    0    0    0      0      0      0      0         0
%i    0    0    0    0      0      0      0      0         0
/*      NGA, ST. LOUIS,MO.                                  
/*   EPHEMERIS COMPUTED FROM  3 DAYS OF DATA                
/* CCCCCCCCCCCCCCCCCCCCCCCCCCCCCCCCCCCCCCCCCCCCCCCCCCCCCCCCC
/* CCCCCCCCCCCCCCCCCCCCCCCCCCCCCCCCCCCCCCCCCCCCCCCCCCCCCCCCC
*  2010  4 29 15  0   .00000000                                                 
P  1 -18092.959887 -11749.664519 -15720.239004   -114.561625                    
V  1  19733.884067   -845.593417 -22097.950449      -.040959                    
P  2  18986.136824  -6903.864345 -17033.707840    251.046505                    
V  2  -9570.907641  19747.033080 -19157.815100       .035301                    
P  3 -17609.953286    217.622950  19610.701855    548.329070                    
V  3 -13284.682083 -22074.846572 -11130.290803       .050777                    
P  4  13597.904945   7984.254117 -21547.685455     70.854435                    
V  4 -14820.413014  22615.899272   -620.217228       .084616                    
P  5  25925.238792  -2551.462088   5390.081611     -2.119129                    
V  5   6717.361064   3050.947836 -30667.002324      -.004735                    
P  6 -18521.480539  -4352.529785  18768.984590    653.825780                    
V  6 -10289.105173 -21195.420048 -15076.253609      -.102935                    
P  7  -3324.520424  22355.570198  13807.539057       .001775                    
V  7 -11317.099156  13623.193051 -24920.667378      -.003885                    
P  8   6439.622834  14443.138890  21215.165181      5.150056                    
V  8 -16861.257859  21117.177081  -9760.302943       .001911                    
P  9  15654.941377 -21005.135429   3669.655799      3.624850                    
V  9   -844.822524   5728.137791  31775.924028       .020870                    
P 10  26173.777489   4411.409050  -3490.165467    -41.458660                    
V 10  -4354.188065   2379.800670 -30966.831905      -.008220                    
P 11 -10196.314944  24226.111775   1815.403560    -59.471344                    
V 11  -4164.497723  -4306.058530  30178.763604      -.023247                    
P 12  13831.537002 -12200.522590 -19002.674457   -121.077215                    
V 12  24141.103255   2798.348516  15878.664157       .043357                    
P 13   3194.927446  24368.511061 -10178.726541    304.914020                    
V 13  -6440.152126 -11044.961653 -28879.004657      -.003450                    
P 14 -15071.745154 -20373.546317  -8031.888480     39.728804                    
V 14  -2618.796695 -10147.665652  30024.699399       .044621                    
P 15  12262.484028  -9519.652139  21557.539175   -280.186514                    
V 15  13169.255652  24001.492977   3225.457530       .052567                    
P 16 -26622.773333  -2191.441161   -175.385449    -66.462833                    
V 16    448.647534  -2213.229159 -31808.380830      -.038382                    
P 17  15449.199225  20495.639304  -7142.445862    147.530161                    
V 17   1687.043559   9351.544720  29845.742098       .025136                    
P 18  -5976.717420 -15780.419722  20847.318246     65.018248                    
V 18  25865.043537   1201.296123   8053.871468       .024663                    
P 19 -12257.840716   9800.261525  21427.505314    -31.419989                    
V 19 -11020.538813 -24852.409629   5370.333243      -.026389                    
P 20 -10799.372111  14275.692005 -19743.084970     56.928580                    
V 20 -24838.989145  -1896.302369  12353.681275      -.006289                    
P 21  -1247.938034 -20534.139778  16777.376442    -56.747954                    
V 21  13821.330178 -16056.427327 -19629.915408      -.025752                    
P 22 -18028.620153 -12600.598492  15110.146142    173.350595                    
V 22  19076.379820   -965.054545  22103.922296      -.009178                    
P 23  -3210.834070  19927.757126 -17126.307827    372.602833                    
V 23 -11356.068286 -18691.339882 -19956.692310      -.013259                    
P 24  -4967.764626 -17250.083758  19753.691542    283.086353                    
V 24  15492.703354 -19446.050172 -12900.154887       .031287                    
P 26   2675.134669 -20346.392412  16039.923122    -45.405782                    
V 26  10107.491792  19097.199287  22225.045366      -.047728                    
P 27  17197.913754 -18608.795302   8377.722501    147.406939                    
V 27  -3046.035509   9466.661519  29855.722190       .034532                    
P 28  15920.298208  13244.503268  17269.226286    -17.420569                    
V 28 -20912.219098   -504.584969  19945.779659       .008763                    
P 29  -3274.193035 -24150.341775 -10513.125501    116.244122                    
V 29   8004.588855  11124.524070 -27756.300606       .028183                    
P 30   1621.947929 -15473.750320 -21917.858134    238.056856                    
V 30  26918.777449    371.680971   1815.163662       .034391                    
P 31 -14111.377855  -5182.753855 -21702.926448    -39.447367                    
V 31  15086.522695 -23578.348228  -3969.430419       .022087                    
P 32 -19524.229466   8246.569248 -15453.627719     40.599205                    
V 32 -19880.848240  -5066.687014  22258.146819      -.085364                    
EOF
